0 FENGYUN 1C DEB
1 30758U 99025ATU 13281.41939703  .00000822  00000-0  53696-3 0  5371
2 30758 099.1390 334.3926 0047649 225.1717 257.5383 14.04628838338945
0 FENGYUN 1C DEB
1 30758U 99025ATU 13282.83070933  .00000945  00000-0  61298-3 0  5383
2 30758 099.1391 335.8131 0047798 221.3644 193.9764 14.04632834339142
0 FENGYUN 1C DEB
1 30758U 99025ATU 13285.40960166  .00001196  00000-0  76811-3 0  5404
2 30758 099.1391 338.4088 0048022 214.4298 274.4113 14.04636848339503
0 FENGYUN 1C DEB
1 30758U 99025ATU 13286.81885091  .00001379  00000-0  88183-3 0  5412
2 30758 099.1389 339.8274 0048103 210.6191 200.4652 14.04639480339706
0 FENGYUN 1C DEB
1 30758U 99025ATU 13288.09669667  .00001680  00000-0  10676-2 0  5420
2 30758 099.1387 341.1139 0048149 207.1678 182.0652 14.04645023339885
0 FENGYUN 1C DEB
1 30758U 99025ATU 13289.39865574  .00001362  00000-0  87071-3 0  5431
2 30758 099.1385 342.4243 0048205 203.6337 285.6375 14.04649795340063
0 FENGYUN 1C DEB
1 30758U 99025ATU 13290.75150769  .00001360  00000-0  86963-3 0  5444
2 30758 099.1383 343.7861 0048242 199.9652 286.5758 14.04654307340250
0 FENGYUN 1C DEB
1 30758U 99025ATU 13292.09157824  .00001266  00000-0  81118-3 0  5455
2 30758 099.1380 345.1345 0048257 196.3493 222.8875 14.04658225340447
0 FENGYUN 1C DEB
1 30758U 99025ATU 13293.38821970  .00001225  00000-0  78567-3 0  5468
2 30758 099.1383 346.4398 0048296 192.8009 299.6614 14.04662818340625
0 FENGYUN 1C DEB
1 30758U 99025ATU 13294.66899802  .00001176  00000-0  75560-3 0  5475
2 30758 099.1382 347.7285 0048297 189.3402 296.1928 14.04667024340806
